O3B MPOWER F1           
1 54755U 22174A   24184.71786003 -.00000021  00000+0  00000+0 0  9995
2 54755   0.0605 352.5905 0006732 106.4183 233.4207  5.00114133 29616
